{
    "links": {
        "self": "http://www.neowsapp.com/rest/v1/neo/3802584?api_key=iIulBulltgU6a56xZRHN4H3l9WmuAYTsLGpBGhQ2"
    },
    "id": "3802584",
    "neo_reference_id": "3802584",
    "name": "(2018 GK4)",
    "designation": "2018 GK4",
    "nasa_jpl_url": "http://ssd.jpl.nasa.gov/sbdb.cgi?sstr=3802584",
    "absolute_magnitude_h": 26.1,
    "estimated_diameter": {
        "kilometers": {
            "estimated_diameter_min": 0.0160160338,
            "estimated_diameter_max": 0.0358129403
        },
        "meters": {
            "estimated_diameter_min": 16.0160337979,
            "estimated_diameter_max": 35.8129403019
        },
        "miles": {
            "estimated_diameter_min": 0.0099518989,
            "estimated_diameter_max": 0.0222531225
        },
        "feet": {
            "estimated_diameter_min": 52.5460443254,
            "estimated_diameter_max": 117.4965270602
        }
    },
    "is_potentially_hazardous_asteroid": false,
    "close_approach_data": [
        {
            "close_approach_date": "2018-04-17",
            "close_approach_date_full": "2018-Apr-17 16:59",
            "epoch_date_close_approach": 1523984340000,
            "relative_velocity": {
                "kilometers_per_second": "10.8264459045",
                "kilometers_per_hour": "38975.2052561114",
                "miles_per_hour": "24217.676843721"
            },
            "miss_distance": {
                "astronomical": "0.0150957367",
                "lunar": "5.8722415763",
                "kilometers": "2258290.056400829",
                "miles": "1403236.3721122802"
            },
            "orbiting_body": "Earth"
        }
    ],
    "orbital_data": {
        "orbit_id": "2",
        "orbit_determination_date": "2019-07-19 05:26:39",
        "first_observation_date": "2018-04-12",
        "last_observation_date": "2018-04-15",
        "data_arc_in_days": 3,
        "observations_used": 53,
        "orbit_uncertainty": "8",
        "minimum_orbit_intersection": ".00841427",
        "jupiter_tisserand_invariant": "3.630",
        "epoch_osculation": "2458221.5",
        "eccentricity": ".5325664666438755",
        "semi_major_axis": "2.016103901088222",
        "inclination": "5.276390539560898",
        "ascending_node_longitude": "24.5171257830246",
        "orbital_period": "1045.605338229833",
        "perihelion_distance": ".942394570098734",
        "perihelion_argument": "220.3653922081303",
        "aphelion_distance": "3.089813232077709",
        "perihelion_time": "2458255.238657541980",
        "mean_anomaly": "348.3838420950726",
        "mean_motion": ".3442981657012819",
        "equinox": "J2000",
        "orbit_class": {
            "orbit_class_type": "APO",
            "orbit_class_description": "Near-Earth asteroid orbits which cross the Earth’s orbit similar to that of 1862 Apollo",
            "orbit_class_range": "a (semi-major axis) > 1.0 AU; q (perihelion) < 1.017 AU"
        }
    },
    "is_sentry_object": false
}